{"type": "FeatureCollection", "features": [ {"type": "Feature", "properties": {"norad_id": 37550, "name": "IRIDIUM 33 DEB", "group": "iridium-33-debris", "lat": -34.722808352471176, "lon": -155.41540923529527, "alt_km": 677.7788162111483, "timestamp": "2025-12-16T19:34:24.653763+00:00", "meta": {"OBJECT_NAME": "IRIDIUM 33 DEB", "OBJECT_ID": "1997-051XK", "EPOCH": "2025-12-15T19:41:01.268448", "MEAN_MOTION": 14.67253244, "ECCENTRICITY": 0.0005615, "INCLINATION": 86.3781, "RA_OF_ASC_NODE": 22.5097, "ARG_OF_PERICENTER": 104.1543, "MEAN_ANOMALY": 256.0296, "EPHEMERIS_TYPE": 0, "CLASSIFICATION_TYPE": "U", "NORAD_CAT_ID": 37550, "ELEMENT_SET_NO": 999, "REV_AT_EPOCH": 86378, "BSTAR": 0.00071396761, "MEAN_MOTION_DOT": 4.045e-05, "MEAN_MOTION_DDOT": 0}, "tle": {"line1": "1 37550U 97051XK  25349.82015357  .00004045  00000+0  71397-3 0  9998", "line2": "2 37550  86.3781  22.5097 0005615 104.1543 256.0296 14.67253244863785"}}, "geometry": {"type": "Point", "coordinates": [-155.41540923529527, -34.722808352471176]}}, {"type": "Feature", "properties": {"norad_id": 37562, "name": "IRIDIUM 33 DEB", "group": "iridium-33-debris", "lat": -84.62195207024011, "lon": -95.83530256495268, "alt_km": 730.5717513595637, "timestamp": "2025-12-16T19:34:24.653773+00:00", "meta": {"OBJECT_NAME": "IRIDIUM 33 DEB", "OBJECT_ID": "1997-051XX", "EPOCH": "2025-12-12T22:34:29.180064", "MEAN_MOTION": 14.56479735, "ECCENTRICITY": 0.00267072, "INCLINATION": 86.3742, "RA_OF_ASC_NODE": 43.5127, "ARG_OF_PERICENTER": 107.2211, "MEAN_ANOMALY": 13.868, "EPHEMERIS_TYPE": 0, "CLASSIFICATION_TYPE": "U", "NORAD_CAT_ID": 37562, "ELEMENT_SET_NO": 999, "REV_AT_EPOCH": 86331, "BSTAR": 0.0015437368, "MEAN_MOTION_DOT": 6.916e-05, "MEAN_MOTION_DDOT": 0}, "tle": {"line1": "1 37562U 97051XX  25346.94061551  .00006916  00000+0  15437-2 0  9999", "line2": "2 37562  86.3742  43.5127 0026707 107.2211  13.8680 14.56479735863311"}}, "geometry": {"type": "Point", "coordinates": [-95.83530256495268, -84.62195207024011]}}, {"type": "Feature", "properties": {"norad_id": 37565, "name": "IRIDIUM 33 DEB", "group": "iridium-33-debris", "lat": -26.465206779737233, "lon": 5.982091316395353, "alt_km": 727.9883077664745, "timestamp": "2025-12-16T19:34:24.653783+00:00", "meta": {"OBJECT_NAME": "IRIDIUM 33 DEB", "OBJECT_ID": "1997-051YA", "EPOCH": "2025-12-15T18:52:41.227392", "MEAN_MOTION": 14.51530597, "ECCENTRICITY": 0.00151766, "INCLINATION": 86.3497, "RA_OF_ASC_NODE": 8.2513, "ARG_OF_PERICENTER": 75.3949, "MEAN_ANOMALY": 284.8938, "EPHEMERIS_TYPE": 0, "CLASSIFICATION_TYPE": "U", "NORAD_CAT_ID": 37565, "ELEMENT_SET_NO": 999, "REV_AT_EPOCH": 65881, "BSTAR": 0.00037505789, "MEAN_MOTION_DOT": 1.522e-05, "MEAN_MOTION_DDOT": 0}, "tle": {"line1": "1 37565U 97051YA  25349.78658828  .00001522  00000+0  37506-3 0  9996", "line2": "2 37565  86.3497   8.2513 0015176  75.3949 284.8938 14.51530597658811"}}, "geometry": {"type": "Point", "coordinates": [5.982091316395353, -26.465206779737233]}}, {"type": "Feature", "properties": {"norad_id": 38017, "name": "IRIDIUM 33 DEB", "group": "iridium-33-debris", "lat": 25.211419379826825, "lon": 166.1812111544155, "alt_km": 698.5584998093409, "timestamp": "2025-12-16T19:34:24.653794+00:00", "meta": {"OBJECT_NAME": "IRIDIUM 33 DEB", "OBJECT_ID": "1997-051YD", "EPOCH": "2025-12-15T05:20:28.842720", "MEAN_MOTION": 14.49104048, "ECCENTRICITY": 0.00921394, "INCLINATION": 86.3417, "RA_OF_ASC_NODE": 165.1477, "ARG_OF_PERICENTER": 94.6566, "MEAN_ANOMALY": 266.5169, "EPHEMERIS_TYPE": 0, "CLASSIFICATION_TYPE": "U", "NORAD_CAT_ID": 38017, "ELEMENT_SET_NO": 999, "REV_AT_EPOCH": 61438, "BSTAR": 0.0029139765, "MEAN_MOTION_DOT": 0.00011718, "MEAN_MOTION_DDOT": 0}, "tle": {"line1": "1 38017U 97051YD  25349.22255605  .00011718  00000+0  29140-2 0  9996", "line2": "2 38017  86.3417 165.1477 0092139  94.6566 266.5169 14.49104048614383"}}, "geometry": {"type": "Point", "coordinates": [166.1812111544155, 25.211419379826825]}}, {"type": "Feature", "properties": {"norad_id": 38022, "name": "IRIDIUM 33 DEB", "group": "iridium-33-debris", "lat": 53.55747863526948, "lon": 19.728445433250805, "alt_km": 717.4579689337743, "timestamp": "2025-12-16T19:34:24.653804+00:00", "meta": {"OBJECT_NAME": "IRIDIUM 33 DEB", "OBJECT_ID": "1997-051YJ", "EPOCH": "2025-12-12T08:41:14.041248", "MEAN_MOTION": 14.41246239, "ECCENTRICITY": 0.00465932, "INCLINATION": 86.2691, "RA_OF_ASC_NODE": 16.6083, "ARG_OF_PERICENTER": 51.6762, "MEAN_ANOMALY": 308.8611, "EPHEMERIS_TYPE": 0, "CLASSIFICATION_TYPE": "U", "NORAD_CAT_ID": 38022, "ELEMENT_SET_NO": 999, "REV_AT_EPOCH": 69188, "BSTAR": 0.001535131, "MEAN_MOTION_DOT": 5.042e-05, "MEAN_MOTION_DDOT": 0}, "tle": {"line1": "1 38022U 97051YJ  25346.36196807  .00005042  00000+0  15351-2 0  9994", "line2": "2 38022  86.2691  16.6083 0046593  51.6762 308.8611 14.41246239691882"}}, "geometry": {"type": "Point", "coordinates": [19.728445433250805, 53.55747863526948]}}, {"type": "Feature", "properties": {"norad_id": 38028, "name": "IRIDIUM 33 DEB", "group": "iridium-33-debris", "lat": -86.25934013773187, "lon": -102.09503041885442, "alt_km": 766.0873741683299, "timestamp": "2025-12-16T19:34:24.653814+00:00", "meta": {"OBJECT_NAME": "IRIDIUM 33 DEB", "OBJECT_ID": "1997-051YQ", "EPOCH": "2025-12-14T18:10:34.836096", "MEAN_MOTION": 14.46181503, "ECCENTRICITY": 0.00303806, "INCLINATION": 86.3253, "RA_OF_ASC_NODE": 359.392, "ARG_OF_PERICENTER": 114.704, "MEAN_ANOMALY": 245.733, "EPHEMERIS_TYPE": 0, "CLASSIFICATION_TYPE": "U", "NORAD_CAT_ID": 38028, "ELEMENT_SET_NO": 999, "REV_AT_EPOCH": 65524, "BSTAR": 0.00026010373, "MEAN_MOTION_DOT": 9.55e-06, "MEAN_MOTION_DDOT": 0}, "tle": {"line1": "1 38028U 97051YQ  25348.75734764  .00000955  00000+0  26010-3 0  9998", "line2": "2 38028  86.3253 359.3920 0030380 114.7040 245.7330 14.46181503655241"}}, "geometry": {"type": "Point", "coordinates": [-102.09503041885442, -86.25934013773187]}}, {"type": "Feature", "properties": {"norad_id": 38228, "name": "IRIDIUM 33 DEB", "group": "iridium-33-debris", "lat": -72.78310092651836, "lon": 34.66611238974574, "alt_km": 824.3213105977047, "timestamp": "2025-12-16T19:34:24.653825+00:00", "meta": {"OBJECT_NAME": "IRIDIUM 33 DEB", "OBJECT_ID": "1997-051ZC", "EPOCH": "2025-12-15T22:37:05.354976", "MEAN_MOTION": 14.27271769, "ECCENTRICITY": 0.00646384, "INCLINATION": 86.2946, "RA_OF_ASC_NODE": 47.1084, "ARG_OF_PERICENTER": 179.0762, "MEAN_ANOMALY": 303.5549, "EPHEMERIS_TYPE": 0, "CLASSIFICATION_TYPE": "U", "NORAD_CAT_ID": 38228, "ELEMENT_SET_NO": 999, "REV_AT_EPOCH": 84827, "BSTAR": 0.00027707855, "MEAN_MOTION_DOT": 7.12e-06, "MEAN_MOTION_DDOT": 0}, "tle": {"line1": "1 38228U 97051ZC  25349.94242309  .00000712  00000+0  27708-3 0  9997", "line2": "2 38228  86.2946  47.1084 0064638 179.0762 303.5549 14.27271769848277"}}, "geometry": {"type": "Point", "coordinates": [34.66611238974574, -72.78310092651836]}}, {"type": "Feature", "properties": {"norad_id": 38241, "name": "IRIDIUM 33 DEB", "group": "iridium-33-debris", "lat": -72.08179232555057, "lon": -179.72721837962183, "alt_km": 720.9482047405008, "timestamp": "2025-12-16T19:34:24.653836+00:00", "meta": {"OBJECT_NAME": "IRIDIUM 33 DEB", "OBJECT_ID": "1997-051ZR", "EPOCH": "2025-12-13T06:13:58.226016", "MEAN_MOTION": 14.54873749, "ECCENTRICITY": 0.00056326, "INCLINATION": 86.3232, "RA_OF_ASC_NODE": 350.3699, "ARG_OF_PERICENTER": 72.2147, "MEAN_ANOMALY": 287.9674, "EPHEMERIS_TYPE": 0, "CLASSIFICATION_TYPE": "U", "NORAD_CAT_ID": 38241, "ELEMENT_SET_NO": 999, "REV_AT_EPOCH": 60208, "BSTAR": 0.0012492013, "MEAN_MOTION_DOT": 5.385e-05, "MEAN_MOTION_DDOT": 0}, "tle": {"line1": "1 38241U 97051ZR  25347.25970169  .00005385  00000+0  12492-2 0  9990", "line2": "2 38241  86.3232 350.3699 0005632  72.2147 287.9674 14.54873749602089"}}, "geometry": {"type": "Point", "coordinates": [-179.72721837962183, -72.08179232555057]}}, {"type": "Feature", "properties": {"norad_id": 38474, "name": "IRIDIUM 33 DEB", "group": "iridium-33-debris", "lat": -35.943635436634835, "lon": 5.634500388571231, "alt_km": 736.6870551529728, "timestamp": "2025-12-16T19:34:24.653847+00:00", "meta": {"OBJECT_NAME": "IRIDIUM 33 DEB", "OBJECT_ID": "1997-051AAB", "EPOCH": "2025-12-13T08:58:04.646496", "MEAN_MOTION": 14.5069505, "ECCENTRICITY": 0.00282612, "INCLINATION": 86.3454, "RA_OF_ASC_NODE": 9.789, "ARG_OF_PERICENTER": 86.1077, "MEAN_ANOMALY": 274.3358, "EPHEMERIS_TYPE": 0, "CLASSIFICATION_TYPE": "U", "NORAD_CAT_ID": 38474, "ELEMENT_SET_NO": 999, "REV_AT_EPOCH": 65327, "BSTAR": 0.00084561127, "MEAN_MOTION_DOT": 3.359e-05, "MEAN_MOTION_DDOT": 0}, "tle": {"line1": "1 38474U 97051AAB 25347.37366489  .00003359  00000+0  84561-3 0  9991", "line2": "2 38474  86.3454   9.7890 0028261  86.1077 274.3358 14.50695050653279"}}, "geometry": {"type": "Point", "coordinates": [5.634500388571231, -35.943635436634835]}}, {"type": "Feature", "properties": {"norad_id": 39777, "name": "IRIDIUM 33 DEB", "group": "iridium-33-debris", "lat": 83.33372651679511, "lon": -44.10901189129843, "alt_km": 687.4361870825878, "timestamp": "2025-12-16T19:34:24.653857+00:00", "meta": {"OBJECT_NAME": "IRIDIUM 33 DEB", "OBJECT_ID": "1997-051AAJ", "EPOCH": "2025-12-12T06:18:37.183104", "MEAN_MOTION": 14.5641282, "ECCENTRICITY": 0.00598335, "INCLINATION": 85.9631, "RA_OF_ASC_NODE": 175.2743, "ARG_OF_PERICENTER": 188.1374, "MEAN_ANOMALY": 171.887, "EPHEMERIS_TYPE": 0, "CLASSIFICATION_TYPE": "U", "NORAD_CAT_ID": 39777, "ELEMENT_SET_NO": 999, "REV_AT_EPOCH": 60178, "BSTAR": 0.0041697031, "MEAN_MOTION_DOT": 0.00019016, "MEAN_MOTION_DDOT": 0}, "tle": {"line1": "1 39777U 97051AAJ 25346.26293036  .00019016  00000+0  41697-2 0  9991", "line2": "2 39777  85.9631 175.2743 0059833 188.1374 171.8870 14.56412820601783"}}, "geometry": {"type": "Point", "coordinates": [-44.10901189129843, 83.33372651679511]}}]}